[{"OBJECT_ID":"2006-012A","OBJECT_NAME":"ASTRA 1KR","NORAD_CAT_ID":"29055","OBJECT_TYPE":"PAYLOAD","PERIOD":"1436.067","INCLINATION":"0.0925","APOGEE":"35804.150","PERIGEE":"35767.872","ECCENTRICITY":"0.0004302","MEAN_MOTION":"1.00273872","TLE_LINE1":"1 29055U 06012A   16239.00535610  .00000092  00000-0  00000+0 0  9991","TLE_LINE2":"2 29055   0.0925 277.8934 0004302 277.3134 160.6126  1.00273872 37827","LAUNCH_DATE":"2006-04-20","LAUNCH_SITE":"AIR FORCE EASTERN TEST RANGE","OWNER":"SOCIÉTÉ EUROPÉENNE DES SATELLITES","ORBIT_TYPE":"Geosynchronous","OPERATIONAL_STATUS":"Operational","satInfo":{"lng":34.78472408677515,"lat":-2.227770663281273,"elevation":-10.749953032972291,"azimuth":280.21527591322484,"range":42854.17615797127,"height":35755.784846727904,"velocity":3.076270182040364},"x":145,"y":-213,"dx":2.5265448249709768,"dy":1.7549955784340405,"maxAlt":256,"minAlt":256},{"OBJECT_ID":"2006-018A","OBJECT_NAME":"GOES 13","NORAD_CAT_ID":"29155","OBJECT_TYPE":"PAYLOAD","PERIOD":"1436.069","INCLINATION":"0.046","APOGEE":"35797.802","PERIGEE":"35774.299","ECCENTRICITY":"0.0002787","MEAN_MOTION":"1.00273733","TLE_LINE1":"1 29155U 06018A   16239.27664244 -.00000279  00000-0  00000+0 0  9991","TLE_LINE2":"2 29155   0.0460 247.7262 0002787 225.6544 246.6412  1.00273733 37603","LAUNCH_DATE":"2006-05-24","LAUNCH_SITE":"AIR FORCE EASTERN TEST RANGE","OWNER":"UNITED STATES OF AMERICA","ORBIT_TYPE":"Geosynchronous","OPERATIONAL_STATUS":"Operational","satInfo":{"lng":-90.98452714893865,"lat":0.25156800704012794,"elevation":-8.32556395310699,"azimuth":45.98452714893866,"range":42625.84696830359,"height":35798.894341365114,"velocity":3.074267725217753},"x":-259,"y":3,"dx":-0.05282328158727669,"dy":-3.073813876479493,"maxAlt":256,"minAlt":256},{"OBJECT_ID":"2006-023B","OBJECT_NAME":"BLOCK DM-SL R/B","NORAD_CAT_ID":"29237","OBJECT_TYPE":"ROCKET BODY","PERIOD":"667.012","INCLINATION":"0.8927","APOGEE":"35635.738","PERIGEE":"2184.193","ECCENTRICITY":"0.6614088","MEAN_MOTION":"2.15887969","TLE_LINE1":"1 29237U 06023B   16238.62226272 -.00000029 +00000-0 +00000-0 0  9995","TLE_LINE2":"2 29237 000.8927 322.4846 6614088 266.6927 243.8886 02.15887969080306","LAUNCH_DATE":"2006-06-18","LAUNCH_SITE":"SEA LAUNCH","OWNER":"SEA LAUNCH DEMO","ORBIT_TYPE":"Highly Elliptical Orbit","OPERATIONAL_STATUS":"N/A, derelict rocket body","satInfo":{"lng":-111.3283923699594,"lat":-0.007036217689062823,"elevation":-12.870331152898917,"azimuth":66.32839236995937,"range":28555.191342972958,"height":21459.65296210368,"velocity":3.588079934308537},"x":-145,"y":55,"dx":-1.3050308738043837,"dy":-3.342336313629273,"maxAlt":255,"minAlt":14},{"OBJECT_ID":"2006-033A","OBJECT_NAME":"JCSAT 10","NORAD_CAT_ID":"29272","OBJECT_TYPE":"PAYLOAD","PERIOD":"1436.120","INCLINATION":"0.037","APOGEE":"35795.336","PERIGEE":"35778.765","ECCENTRICITY":"0.0001965","MEAN_MOTION":"1.00270165","TLE_LINE1":"1 29272U 06033A   16238.81438253 -.00000372  00000-0  00000+0 0  9990","TLE_LINE2":"2 29272   0.0370 300.5483 0001965 208.5065 246.6055  1.00270165 36845","LAUNCH_DATE":"2006-08-11","LAUNCH_SITE":"FRENCH GUIANA","OWNER":"JAPAN","ORBIT_TYPE":"Geosynchronous","OPERATIONAL_STATUS":"Operational","satInfo":{"lng":109.54656014876797,"lat":-1.2993191749019097,"elevation":-9.837316554592174,"azimuth":205.45343985123202,"range":42801.388308225454,"height":35804.77047491595,"velocity":3.0741058813511444},"x":242,"y":85,"dx":-1.028512106791296,"dy":2.896944910753642,"maxAlt":256,"minAlt":256},{"OBJECT_ID":"2006-033B","OBJECT_NAME":"SYRACUSE 3B","NORAD_CAT_ID":"29273","OBJECT_TYPE":"PAYLOAD","PERIOD":"1436.100","INCLINATION":"0.0102","APOGEE":"35797.886","PERIGEE":"35775.463","ECCENTRICITY":"0.0002659","MEAN_MOTION":"1.00271507","TLE_LINE1":"1 29273U 06033B   16238.88284251 -.00000071 +00000-0 +00000-0 0  9992","TLE_LINE2":"2 29273 000.0102 108.0432 0002659 063.7843 115.3408 01.00271507036799","LAUNCH_DATE":"2006-08-11","LAUNCH_SITE":"FRENCH GUIANA","OWNER":"FRANCE","ORBIT_TYPE":"Geosynchronous","OPERATIONAL_STATUS":"Operational","satInfo":{"lng":46.329484475570695,"lat":2.2633172823518164,"elevation":-6.353198932219693,"azimuth":268.6705155244293,"range":42409.77661968545,"height":35804.059608438125,"velocity":3.074466227797087},"x":185,"y":-180,"dx":2.122950535411077,"dy":2.2238308411528678,"maxAlt":256,"minAlt":256},{"OBJECT_ID":"2006-034B","OBJECT_NAME":"BLOCK DM-SL R/B","NORAD_CAT_ID":"29350","OBJECT_TYPE":"ROCKET BODY","PERIOD":"678.762","INCLINATION":"0.7296","APOGEE":"35527.714","PERIGEE":"2884.458","ECCENTRICITY":"0.6379568","MEAN_MOTION":"2.1215069","TLE_LINE1":"1 29350U 06034B   16238.81613514 -.00000028 +00000-0 +00000-0 0  9992","TLE_LINE2":"2 29350 000.7296 046.9914 6379568 008.4112 188.5149 02.12150690077598","LAUNCH_DATE":"2006-08-22","LAUNCH_SITE":"SEA LAUNCH","OWNER":"SEA LAUNCH DEMO","ORBIT_TYPE":"Highly Elliptical Orbit","OPERATIONAL_STATUS":"N/A, derelict rocket body","satInfo":{"lng":-33.8914398951265,"lat":-2.8163644302181017,"elevation":-12.98068890175867,"azimuth":348.8914398951265,"range":35968.041979534806,"height":28713.105099663822,"velocity":2.6717412434492633},"x":-117,"y":-173,"dx":2.2178006614117756,"dy":-1.489819283735214,"maxAlt":254,"minAlt":19},{"OBJECT_ID":"2006-043B","OBJECT_NAME":"OPTUS D1","NORAD_CAT_ID":"29495","OBJECT_TYPE":"PAYLOAD","PERIOD":"1436.100","INCLINATION":"0.0405","APOGEE":"35801.168","PERIGEE":"35772.158","ECCENTRICITY":"0.000344","MEAN_MOTION":"1.00271548","TLE_LINE1":"1 29495U 06043B   16238.84658787 -.00000138 +00000-0 +00000-0 0  9998","TLE_LINE2":"2 29495 000.0405 312.2904 0003440 209.9667 277.0270 01.00271548036193","LAUNCH_DATE":"2006-10-13","LAUNCH_SITE":"FRENCH GUIANA","OWNER":"AUSTRALIA","ORBIT_TYPE":"Geosynchronous","OPERATIONAL_STATUS":"Operational","satInfo":{"lng":-83.33075819199836,"lat":1.5986842032646136,"elevation":-7.000845944370355,"azimuth":38.330758191998356,"range":42506.226932197205,"height":35827.590190554954,"velocity":3.072864133534222},"x":-258,"y":-31,"dx":0.35687492671053594,"dy":-3.052070489003551,"maxAlt":256,"minAlt":256},{"OBJECT_ID":"2006-049B","OBJECT_NAME":"BLOCK DM-SL R/B","NORAD_CAT_ID":"29521","OBJECT_TYPE":"ROCKET BODY","PERIOD":"657.923","INCLINATION":"0.4057","APOGEE":"36053.874","PERIGEE":"1305.559","ECCENTRICITY":"0.6933618","MEAN_MOTION":"2.18870388","TLE_LINE1":"1 29521U 06049B   16238.70308968 -.00000011 +00000-0 +00000-0 0  9992","TLE_LINE2":"2 29521 000.4057 057.4201 6933618 010.9546 008.0369 02.18870388078508","LAUNCH_DATE":"2006-10-30","LAUNCH_SITE":"SEA LAUNCH","OWNER":"SEA LAUNCH DEMO","ORBIT_TYPE":"Highly Elliptical Orbit","OPERATIONAL_STATUS":"N/A, derelict rocket body","satInfo":{"lng":90.52509744570267,"lat":1.1638143880063607,"elevation":-8.214423704016081,"azimuth":224.47490255429733,"range":39009.69522363954,"height":32239.28778482007,"velocity":2.176340158795528},"x":231,"y":1,"dx":-0.019945180442981745,"dy":2.1762487625644367,"maxAlt":258,"minAlt":8},{"OBJECT_ID":"2006-056A","OBJECT_NAME":"MEASAT 3","NORAD_CAT_ID":"29648","OBJECT_TYPE":"PAYLOAD","PERIOD":"1436.151","INCLINATION":"0.0258","APOGEE":"35803.597","PERIGEE":"35771.728","ECCENTRICITY":"0.0003779","MEAN_MOTION":"1.00267983","TLE_LINE1":"1 29648U 06056A   16238.80744811 -.00000268 +00000-0 +00000-0 0  9996","TLE_LINE2":"2 29648 000.0258 160.1942 0003779 001.2357 195.2008 01.00267983014537","LAUNCH_DATE":"2006-12-11","LAUNCH_SITE":"TYURATAM MISSILE AND SPACE COMPLEX","OWNER":"MALAYSIA","ORBIT_TYPE":"Geosynchronous","OPERATIONAL_STATUS":"Operational","satInfo":{"lng":58.89745039302399,"lat":0.7189627579551804,"elevation":-7.874371717335334,"azimuth":256.102549606976,"range":42545.47013131248,"height":35769.480062001814,"velocity":3.07588146532365},"x":219,"y":-135,"dx":1.588912491406192,"dy":2.633705352421742,"maxAlt":256,"minAlt":256},{"OBJECT_ID":"2007-003A","OBJECT_NAME":"BEIDOU 1D","NORAD_CAT_ID":"30323","OBJECT_TYPE":"PAYLOAD","PERIOD":"1452.271","INCLINATION":"1.7254","APOGEE":"36364.537","PERIGEE":"35840.673","ECCENTRICITY":"0.0061659","MEAN_MOTION":"0.99155006","TLE_LINE1":"1 30323U 07003A   16237.42683444 -.00000268 +00000-0 +00000-0 0  9992","TLE_LINE2":"2 30323 001.7254 088.9497 0061659 176.3926 184.0751 00.99155006035175","LAUNCH_DATE":"2007-02-02","LAUNCH_SITE":"Xichang Space Center, China","OWNER":"PEOPLES REPUBLIC OF CHINA","ORBIT_TYPE":"Geosynchronous","OPERATIONAL_STATUS":"Nonoperational","satInfo":{"lng":2.4746754240930353,"lat":3.692912218711734,"elevation":-4.843196197819372,"azimuth":312.52532457590695,"range":42757.88324585706,"height":36315.640043975625,"velocity":3.047895492224563},"x":10,"y":-263,"dx":3.0450530359885537,"dy":0.1316014420122489,"maxAlt":260,"minAlt":257},{"OBJECT_ID":"2007-036D","OBJECT_NAME":"ARIANE 5 R/B","NORAD_CAT_ID":"32021","OBJECT_TYPE":"ROCKET BODY","PERIOD":"608.209","INCLINATION":"1.7902","APOGEE":"34508.210","PERIGEE":"293.744","ECCENTRICITY":"0.7194227","MEAN_MOTION":"2.36760528","TLE_LINE1":"1 32021U 07036D   16238.94776098 +.00000334 +00000-0 +26641-3 0  9996","TLE_LINE2":"2 32021 001.7902 212.2733 7194227 052.7544 353.1602 02.36760528076460","LAUNCH_DATE":"2007-08-14","LAUNCH_SITE":"FRENCH GUIANA","OWNER":"FRANCE","ORBIT_TYPE":"Highly Elliptical Orbit","OPERATIONAL_STATUS":"N/A, derelict rocket body","satInfo":{"lng":83.28515556660656,"lat":0.519731208186721,"elevation":-8.375825902914075,"azimuth":231.71484443339344,"range":41111.63945221674,"height":34296.67243180605,"velocity":1.6696729831019186},"x":244,"y":-30,"dx":0.19523160278250334,"dy":1.6582196753673606,"maxAlt":247,"minAlt":1}]